NORAD_CAT_ID,OBJECT_NAME,OBJECT_TYPE,EPOCH,MEAN_MOTION,ECCENTRICITY,INCLINATION,RA_OF_ASC_NODE,ARG_OF_PERICENTER,MEAN_ANOMALY,BSTAR,MEAN_MOTION_DOT,MEAN_MOTION_DDOT,TLE_LINE0,TLE_LINE1,TLE_LINE2,SEMIMAJOR_AXIS,PERIOD,APOGEE,PERIGEE,DECAYED
54768.0,STARLINK-5444,PAYLOAD,2023-11-23 21:01:56,15.08834427,0.0001451,53.2157,186.1067,92.0414,268.0745,-2.7165e-05,-7.2e-06,0.0,0 STARLINK-5444,1 54768U 22175L   23327.87634924 -.00000720  00000-0 -27165-4 0  9993,2 54768  53.2157 186.1067 0001451  92.0414 268.0745 15.08834427 53793,6917.897,95.438,540.766,538.759,0.0
54768.0,STARLINK-5444,PAYLOAD,2023-11-24 14:31:11,15.08839678,0.000139,53.2154,182.8357,105.0828,255.0318,-3.5911e-05,-8.59e-06,0.0,0 STARLINK-5444,1 54768U 22175L   23328.60498968 -.00000859  00000-0 -35911-4 0  9992,2 54768  53.2154 182.8357 0001390 105.0828 255.0318 15.08839678 53909,6917.881,95.438,540.708,538.785,0.0
54768.0,STARLINK-5444,PAYLOAD,2023-11-24 19:17:20,15.08842487,0.0001419,53.2153,181.9455,80.2933,279.822,4.842e-05,4.83e-06,0.0,0 STARLINK-5444,1 54768U 22175L   23328.80371000  .00000483  00000-0  48420-4 0  9991,2 54768  53.2153 181.9455 0001419  80.2933 279.8220 15.08842487 51771,6917.873,95.437,540.719,538.756,0.0
54768.0,STARLINK-5444,PAYLOAD,2023-11-24 20:52:43,15.0884448,0.0001397,53.2152,181.6471,91.0226,269.0926,8.3083e-05,1.035e-05,0.0,0 STARLINK-5444,1 54768U 22175L   23328.86994852  .00001035  00000-0  83083-4 0  9991,2 54768  53.2152 181.6471 0001397  91.0226 269.0926 15.08844480 53945,6917.867,95.437,540.698,538.765,0.0
54768.0,STARLINK-5444,PAYLOAD,2023-11-25 09:35:49,15.08833891,0.0001519,53.2144,179.2671,112.5159,247.5994,0.00072009,0.00011189,0.0,0 STARLINK-5444,1 54768U 22175L   23329.39987802  .00011189  00000-0  72009-3 0  9993,2 54768  53.2144 179.2671 0001519 112.5159 247.5994 15.08833891 54021,6917.899,95.438,540.815,538.713,0.0
54768.0,STARLINK-5444,PAYLOAD,2023-11-25 19:08:07,15.08848978,0.0001453,53.2143,177.4831,101.6524,258.4631,0.00039859,6.063e-05,0.0,0 STARLINK-5444,1 54768U 22175L   23329.79730944  .00006063  00000-0  39859-3 0  9991,2 54768  53.2143 177.4831 0001453 101.6524 258.4631 15.08848978 54087,6917.853,95.437,540.723,538.713,0.0
54768.0,STARLINK-5444,PAYLOAD,2023-11-25 23:54:16,15.08860843,0.0001474,53.2141,176.5904,105.3951,254.7204,0.00058857,9.097e-05,0.0,0 STARLINK-5444,1 54768U 22175L   23329.99602443  .00009097  00000-0  58857-3 0  9994,2 54768  53.2141 176.5904 0001474 105.3951 254.7204 15.08860843 51957,6917.817,95.436,540.701,538.662,0.0
54768.0,STARLINK-5444,PAYLOAD,2023-11-26 18:58:54,15.08846317,0.0001554,53.2143,173.0213,107.9123,252.2038,8.582e-05,1.078e-05,0.0,0 STARLINK-5444,1 54768U 22175L   23330.79090519  .00001078  00000-0  85820-4 0  9991,2 54768  53.2143 173.0213 0001554 107.9123 252.2038 15.08846317 52074,6917.861,95.437,540.801,538.651,0.0
54768.0,STARLINK-5444,PAYLOAD,2023-11-26 20:34:17,15.08845741,0.000141,53.2145,172.7248,98.3549,261.7603,6.4421e-05,7.38e-06,0.0,0 STARLINK-5444,1 54768U 22175L   23330.85714529  .00000738  00000-0  64421-4 0  9998,2 54768  53.2145 172.7248 0001410  98.3549 261.7603 15.08845741 54240,6917.863,95.437,540.703,538.752,0.0
54768.0,STARLINK-5444,PAYLOAD,2023-11-27 14:03:32,15.0883414,0.0001983,53.2142,169.4518,125.421,234.6968,-5.2603e-05,-1.125e-05,0.0,0 STARLINK-5444,1 54768U 22175L   23331.58578961 -.00001125  00000-0 -52603-4 0  9999,2 54768  53.2142 169.4518 0001983 125.4210 234.6968 15.08834140 54358,6917.898,95.438,541.135,538.391,0.0
54768.0,STARLINK-5444,PAYLOAD,2023-11-27 18:49:42,15.08832263,0.0001157,53.2162,168.5578,125.5626,234.5474,5.9586e-06,-1.93e-06,0.0,0 STARLINK-5444,1 54768U 22175L   23331.78451407 -.00000193  00000-0  59586-5 0  9997,2 54768  53.2162 168.5578 0001157 125.5626 234.5474 15.08832263 52220,6917.904,95.438,540.569,538.969,0.0
54768.0,STARLINK-5444,PAYLOAD,2023-11-27 22:00:28,15.08837285,0.0001548,53.2162,167.964,113.0714,247.0442,-7.6385e-05,-1.503e-05,0.0,0 STARLINK-5444,1 54768U 22175L   23331.91699411 -.00001503  00000-0 -76385-4 0  9993,2 54768  53.2162 167.9640 0001548 113.0714 247.0442 15.08837285 54402,6917.889,95.438,540.825,538.683,0.0
54768.0,STARLINK-5444,PAYLOAD,2023-11-28 12:18:56,15.08834503,0.0001361,53.2162,165.288,104.3822,255.7321,2.2846e-05,7.6e-07,0.0,0 STARLINK-5444,1 54768U 22175L   23332.51315514  .00000076  00000-0  22846-4 0  9994,2 54768  53.2162 165.2880 0001361 104.3822 255.7321 15.08834503 54496,6917.897,95.438,540.704,538.821,0.0
54768.0,STARLINK-5444,PAYLOAD,2023-11-28 20:15:51,15.08841509,0.0001286,53.2159,163.8032,96.61,263.5039,7.4803e-05,9.03e-06,0.0,0 STARLINK-5444,1 54768U 22175L   23332.84434977  .00000903  00000-0  74803-4 0  9994,2 54768  53.2159 163.8032 0001286  96.6100 263.5039 15.08841509 52386,6917.876,95.437,540.63,538.851,0.0
54768.0,STARLINK-5444,PAYLOAD,2023-11-29 12:09:43,15.08835519,0.0001259,53.2158,160.8307,98.6389,261.4745,0.00012371,1.681e-05,0.0,0 STARLINK-5444,1 54768U 22175L   23333.50675350  .00001681  00000-0  12371-3 0  9995,2 54768  53.2158 160.8307 0001259  98.6389 261.4745 15.08835519 54644,6917.894,95.438,540.63,538.888,0.0
54768.0,STARLINK-5444,PAYLOAD,2023-11-29 20:06:39,15.08839198,0.0001223,53.2158,159.3445,83.6684,276.4447,0.00014258,1.982e-05,0.0,0 STARLINK-5444,1 54768U 22175L   23333.83795317  .00001982  00000-0  14258-3 0  9997,2 54768  53.2158 159.3445 0001223  83.6684 276.4447 15.08839198 52531,6917.883,95.438,540.594,538.902,0.0
54768.0,STARLINK-5444,PAYLOAD,2023-12-01 11:51:17,15.08843206,0.0001276,53.2159,151.9099,86.6645,273.4494,7.7703e-05,9.49e-06,0.0,0 STARLINK-5444,1 54768U 22175L   23335.49395290  .00000949  00000-0  77703-4 0  9994,2 54768  53.2159 151.9099 0001276  86.6645 273.4494 15.08843206 52784,6917.871,95.437,540.618,538.853,0.0
54768.0,STARLINK-5444,PAYLOAD,2023-12-01 18:12:49,15.08846128,0.0001366,53.2158,150.7209,80.3479,279.7667,0.00010012,1.306e-05,0.0,0 STARLINK-5444,1 54768U 22175L   23335.75891015  .00001306  00000-0  10012-3 0  9996,2 54768  53.2158 150.7209 0001366  80.3479 279.7667 15.08846128 54980,6917.862,95.437,540.672,538.782,0.0
54768.0,STARLINK-5444,PAYLOAD,2023-12-02 18:03:36,15.08847054,0.0001528,53.2165,146.2613,76.8183,283.2979,0.0001049,1.382e-05,0.0,0 STARLINK-5444,1 54768U 22175L   23336.75250655  .00001382  00000-0  10490-3 0  9990,2 54768  53.2165 146.2613 0001528  76.8183 283.2979 15.08847054 52971,6917.859,95.437,540.781,538.667,0.0
54768.0,STARLINK-5444,PAYLOAD,2023-12-03 14:43:38,15.08835016,0.0001289,53.2162,142.3943,90.8867,269.2273,-2.5734e-05,-6.97e-06,0.0,0 STARLINK-5444,1 54768U 22175L   23337.61363799 -.00000697  00000-0 -25734-4 0  9998,2 54768  53.2162 142.3943 0001289  90.8867 269.2273 15.08835016 55261,6917.896,95.438,540.652,538.869,0.0
54768.0,STARLINK-5444,PAYLOAD,2023-12-03 16:19:01,15.0883418,0.0001658,53.2166,142.0951,126.7314,233.3831,-4.4104e-05,-9.9e-06,0.0,0 STARLINK-5444,1 54768U 22175L   23337.67987704 -.00000990  00000-0 -44104-4 0  9990,2 54768  53.2166 142.0951 0001658 126.7314 233.3831 15.08834180 53112,6917.898,95.438,540.91,538.616,0.0
54768.0,STARLINK-5444,PAYLOAD,2023-12-04 11:23:39,15.08840474,0.0001144,53.216,138.5287,95.2533,264.8589,-0.00015739,-2.792e-05,0.0,0 STARLINK-5444,1 54768U 22175L   23338.47476303 -.00002792  00000-0 -15739-3 0  9990,2 54768  53.2160 138.5287 0001144  95.2533 264.8589 15.08840474 55395,6917.879,95.438,540.535,538.953,0.0
54768.0,STARLINK-5444,PAYLOAD,2023-12-05 09:39:03,15.08833545,0.0001119,53.2162,134.364,98.0708,262.0411,0.0001704,2.425e-05,0.0,0 STARLINK-5444,1 54768U 22175L   23339.40211924  .00002425  00000-0  17040-3 0  9998,2 54768  53.2162 134.3640 0001119  98.0708 262.0411 15.08833545 53372,6917.9,95.438,540.539,538.991,0.0
54768.0,STARLINK-5444,PAYLOAD,2023-12-05 12:49:49,15.08837366,0.0001114,53.2159,133.7707,89.0273,271.0847,0.00019053,2.746e-05,0.0,0 STARLINK-5444,1 54768U 22175L   23339.53459709  .00002746  00000-0  19053-3 0  9999,2 54768  53.2159 133.7707 0001114  89.0273 271.0847 15.08837366 55557,6917.888,95.438,540.524,538.983,0.0
54768.0,STARLINK-5444,PAYLOAD,2023-12-05 20:46:44,15.08842314,0.0001121,53.2158,132.2832,95.9789,264.1331,0.00022038,3.221e-05,0.0,0 STARLINK-5444,1 54768U 22175L   23339.86579361  .00003221  00000-0  22038-3 0  9998,2 54768  53.2158 132.2832 0001121  95.9789 264.1331 15.08842314 55601,6917.873,95.437,540.514,538.963,0.0
54768.0,STARLINK-5444,PAYLOAD,2023-12-06 19:02:09,15.08839308,0.0002482,53.2128,128.1144,117.81,242.3144,6.6065e-05,7.63e-06,0.0,0 STARLINK-5444,1 54768U 22175L   23340.79316148  .00000763  00000-0  66065-4 0  9991,2 54768  53.2128 128.1144 0002482 117.8100 242.3144 15.08839308 53584,6917.883,95.438,541.465,538.03,0.0
54768.0,STARLINK-5444,PAYLOAD,2023-12-08 09:11:24,15.08836918,0.000122,53.2161,120.9823,95.5447,264.5685,1.5136e-05,-4.7e-07,0.0,0 STARLINK-5444,1 54768U 22175L   23342.38292267 -.00000047  00000-0  15136-4 0  9992,2 54768  53.2161 120.9823 0001220  95.5447 264.5685 15.08836918 53827,6917.89,95.438,540.599,538.911,0.0
54768.0,STARLINK-5444,PAYLOAD,2023-12-08 12:22:10,15.08839546,0.0001218,53.216,120.3879,101.7033,258.4096,3.6825e-05,2.98e-06,0.0,0 STARLINK-5444,1 54768U 22175L   23342.51540013  .00000298  00000-0  36825-4 0  9997,2 54768  53.2160 120.3879 0001218 101.7033 258.4096 15.08839546 56000,6917.882,95.438,540.589,538.904,0.0
54768.0,STARLINK-5444,PAYLOAD,2023-12-09 12:12:57,15.08840809,0.0001088,53.2163,115.9281,104.0659,256.0455,4.7237e-05,4.64e-06,0.0,0 STARLINK-5444,1 54768U 22175L   23343.50899984  .00000464  00000-0  47237-4 0  9995,2 54768  53.2163 115.9281 0001088 104.0659 256.0455 15.08840809 56158,6917.878,95.438,540.496,538.99,0.0
54768.0,STARLINK-5444,PAYLOAD,2023-12-09 18:34:30,15.0884033,0.0001537,53.2157,114.7375,99.6085,260.5081,7.4723e-05,9.01e-06,0.0,0 STARLINK-5444,1 54768U 22175L   23343.77396037  .00000901  00000-0  74723-4 0  9991,2 54768  53.2157 114.7375 0001537  99.6085 260.5081 15.08840330 54032,6917.879,95.438,540.808,538.681,0.0
